{
  "type": "FeatureCollection",
  "features": [
    {
      "type": "Feature",
      "properties": {
        "norad_id": 34588,
        "name": "COSMOS 2251 DEB",
        "group": "cosmos-2251-debris",
        "lat": 74.02583213815562,
        "lon": 12.377132503546939,
        "alt_km": 750.5771341966356,
        "timestamp": "2025-12-06T03:35:02.280735+00:00",
        "meta_object_name": "COSMOS 2251 DEB",
        "meta_object_id": "1993-036WA",
        "meta_epoch": "2025-12-05T06:15:18.698112",
        "meta_mean_motion": 14.41982903,
        "meta_eccentricity": 0.00189829,
        "meta_inclination": 74.0441,
        "meta_ra_of_asc_node": 282.1131,
        "meta_arg_of_pericenter": 335.6731,
        "meta_mean_anomaly": 183.1556,
        "meta_ephemeris_type": 0,
        "meta_classification_type": "U",
        "meta_norad_cat_id": 34588,
        "meta_element_set_no": 999,
        "meta_rev_at_epoch": 87842,
        "meta_bstar": 0.00099316745,
        "meta_mean_motion_dot": 3.239e-05,
        "meta_mean_motion_ddot": 0,
        "tle_line1": "1 34588U 93036WA  25339.26063308  .00003239  00000+0  99317-3 0  9997",
        "tle_line2": "2 34588  74.0441 282.1131 0018982 335.6731 183.1556 14.41982903878423"
      },
      "geometry": {
        "type": "Point",
        "coordinates": [
          12.377132503546939,
          74.02583213815562
        ]
      }
    },
    {
      "type": "Feature",
      "properties": {
        "norad_id": 34589,
        "name": "COSMOS 2251 DEB",
        "group": "cosmos-2251-debris",
        "lat": -0.7049856807609942,
        "lon": -112.53523802962324,
        "alt_km": 1125.6502498099808,
        "timestamp": "2025-12-06T03:35:02.280746+00:00",
        "meta_object_name": "COSMOS 2251 DEB",
        "meta_object_id": "1993-036WB",
        "meta_epoch": "2025-12-04T16:24:19.082016",
        "meta_mean_motion": 13.86044118,
        "meta_eccentricity": 0.0251655,
        "meta_inclination": 73.9245,
        "meta_ra_of_asc_node": 69.7581,
        "meta_arg_of_pericenter": 14.7216,
        "meta_mean_anomaly": 54.2278,
        "meta_ephemeris_type": 0,
        "meta_classification_type": "U",
        "meta_norad_cat_id": 34589,
        "meta_element_set_no": 999,
        "meta_rev_at_epoch": 84600,
        "meta_bstar": 0.00040059,
        "meta_mean_motion_dot": 5.67e-06,
        "meta_mean_motion_ddot": 0,
        "tle_line1": "1 34589U 93036WB  25338.68355419  .00000567  00000+0  40059-3 0  9990",
        "tle_line2": "2 34589  73.9245  69.7581 0251655  14.7216  54.2278 13.86044118846004"
      },
      "geometry": {
        "type": "Point",
        "coordinates": [
          -112.53523802962324,
          -0.7049856807609942
        ]
      }
    },
    {
      "type": "Feature",
      "properties": {
        "norad_id": 34590,
        "name": "COSMOS 2251 DEB",
        "group": "cosmos-2251-debris",
        "lat": -25.047234945967503,
        "lon": -32.663366358052784,
        "alt_km": 747.7175020191562,
        "timestamp": "2025-12-06T03:35:02.280756+00:00",
        "meta_object_name": "COSMOS 2251 DEB",
        "meta_object_id": "1993-036WC",
        "meta_epoch": "2025-12-03T18:43:59.825856",
        "meta_mean_motion": 14.54808943,
        "meta_eccentricity": 0.00680312,
        "meta_inclination": 74.0436,
        "meta_ra_of_asc_node": 339.4993,
        "meta_arg_of_pericenter": 111.7106,
        "meta_mean_anomaly": 61.8791,
        "meta_ephemeris_type": 0,
        "meta_classification_type": "U",
        "meta_norad_cat_id": 34590,
        "meta_element_set_no": 999,
        "meta_rev_at_epoch": 88990,
        "meta_bstar": 0.0001775441,
        "meta_mean_motion_dot": 7.56e-06,
        "meta_mean_motion_ddot": 0,
        "tle_line1": "1 34590U 93036WC  25337.78055354  .00000756  00000+0  17754-3 0  9993",
        "tle_line2": "2 34590  74.0436 339.4993 0068031 111.7106  61.8791 14.54808943889904"
      },
      "geometry": {
        "type": "Point",
        "coordinates": [
          -32.663366358052784,
          -25.047234945967503
        ]
      }
    },
    {
      "type": "Feature",
      "properties": {
        "norad_id": 34609,
        "name": "COSMOS 2251 DEB",
        "group": "cosmos-2251-debris",
        "lat": 12.726905701141941,
        "lon": -65.01423203476037,
        "alt_km": 923.4150360864996,
        "timestamp": "2025-12-06T03:35:02.280767+00:00",
        "meta_object_name": "COSMOS 2251 DEB",
        "meta_object_id": "1993-036WE",
        "meta_epoch": "2025-12-04T19:02:52.255968",
        "meta_mean_motion": 14.21747967,
        "meta_eccentricity": 0.01445731,
        "meta_inclination": 73.7322,
        "meta_ra_of_asc_node": 121.2437,
        "meta_arg_of_pericenter": 342.0738,
        "meta_mean_anomaly": 88.7108,
        "meta_ephemeris_type": 0,
        "meta_classification_type": "U",
        "meta_norad_cat_id": 34609,
        "meta_element_set_no": 999,
        "meta_rev_at_epoch": 86519,
        "meta_bstar": 0.0011594566,
        "meta_mean_motion_dot": 2.808e-05,
        "meta_mean_motion_ddot": 0,
        "tle_line1": "1 34609U 93036WE  25338.79366037  .00002808  00000+0  11595-2 0  9995",
        "tle_line2": "2 34609  73.7322 121.2437 0144573 342.0738  88.7108 14.21747967865198"
      },
      "geometry": {
        "type": "Point",
        "coordinates": [
          -65.01423203476037,
          12.726905701141941
        ]
      }
    },
    {
      "type": "Feature",
      "properties": {
        "norad_id": 34610,
        "name": "COSMOS 2251 DEB",
        "group": "cosmos-2251-debris",
        "lat": -37.86839603205058,
        "lon": -98.99908730003078,
        "alt_km": 863.1229669032664,
        "timestamp": "2025-12-06T03:35:02.280778+00:00",
        "meta_object_name": "COSMOS 2251 DEB",
        "meta_object_id": "1993-036WF",
        "meta_epoch": "2025-12-04T12:31:16.375584",
        "meta_mean_motion": 14.06957866,
        "meta_eccentricity": 0.0180026,
        "meta_inclination": 74.0195,
        "meta_ra_of_asc_node": 276.7285,
        "meta_arg_of_pericenter": 49.1144,
        "meta_mean_anomaly": 312.5431,
        "meta_ephemeris_type": 0,
        "meta_classification_type": "U",
        "meta_norad_cat_id": 34610,
        "meta_element_set_no": 999,
        "meta_rev_at_epoch": 85444,
        "meta_bstar": 0.0044727,
        "meta_mean_motion_dot": 8.631e-05,
        "meta_mean_motion_ddot": 0,
        "tle_line1": "1 34610U 93036WF  25338.52171731  .00008631  00000+0  44727-2 0  9996",
        "tle_line2": "2 34610  74.0195 276.7285 0180026  49.1144 312.5431 14.06957866854445"
      },
      "geometry": {
        "type": "Point",
        "coordinates": [
          -98.99908730003078,
          -37.86839603205058
        ]
      }
    },
    {
      "type": "Feature",
      "properties": {
        "norad_id": 34611,
        "name": "COSMOS 2251 DEB",
        "group": "cosmos-2251-debris",
        "lat": -20.762400263411507,
        "lon": 107.49536920009983,
        "alt_km": 684.8442966386656,
        "timestamp": "2025-12-06T03:35:02.280788+00:00",
        "meta_object_name": "COSMOS 2251 DEB",
        "meta_object_id": "1993-036WG",
        "meta_epoch": "2025-12-05T05:06:10.374048",
        "meta_mean_motion": 14.69267998,
        "meta_eccentricity": 0.00236594,
        "meta_inclination": 74.0531,
        "meta_ra_of_asc_node": 115.5299,
        "meta_arg_of_pericenter": 159.6768,
        "meta_mean_anomaly": 266.1828,
        "meta_ephemeris_type": 0,
        "meta_classification_type": "U",
        "meta_norad_cat_id": 34611,
        "meta_element_set_no": 999,
        "meta_rev_at_epoch": 88280,
        "meta_bstar": 0.0036227135,
        "meta_mean_motion_dot": 0.00021498,
        "meta_mean_motion_ddot": 0,
        "tle_line1": "1 34611U 93036WG  25339.21262007  .00021498  00000+0  36227-2 0  9993",
        "tle_line2": "2 34611  74.0531 115.5299 0023659 159.6768 266.1828 14.69267998882806"
      },
      "geometry": {
        "type": "Point",
        "coordinates": [
          107.49536920009983,
          -20.762400263411507
        ]
      }
    },
    {
      "type": "Feature",
      "properties": {
        "norad_id": 34613,
        "name": "COSMOS 2251 DEB",
        "group": "cosmos-2251-debris",
        "lat": 3.283326467348712,
        "lon": -68.53415209967834,
        "alt_km": 845.6312046881803,
        "timestamp": "2025-12-06T03:35:02.280799+00:00",
        "meta_object_name": "COSMOS 2251 DEB",
        "meta_object_id": "1993-036WJ",
        "meta_epoch": "2025-12-04T15:21:45.376128",
        "meta_mean_motion": 14.26359241,
        "meta_eccentricity": 0.0110107,
        "meta_inclination": 73.9637,
        "meta_ra_of_asc_node": 293.2595,
        "meta_arg_of_pericenter": 127.2054,
        "meta_mean_anomaly": 50.7349,
        "meta_ephemeris_type": 0,
        "meta_classification_type": "U",
        "meta_norad_cat_id": 34613,
        "meta_element_set_no": 999,
        "meta_rev_at_epoch": 86347,
        "meta_bstar": 0.0024688,
        "meta_mean_motion_dot": 6.304e-05,
        "meta_mean_motion_ddot": 0,
        "tle_line1": "1 34613U 93036WJ  25338.64010852  .00006304  00000+0  24688-2 0  9997",
        "tle_line2": "2 34613  73.9637 293.2595 0110107 127.2054  50.7349 14.26359241863473"
      },
      "geometry": {
        "type": "Point",
        "coordinates": [
          -68.53415209967834,
          3.283326467348712
        ]
      }
    }
  ]
}